P/2022 C2 (PANSTARRS),e,9.9810,135.2622,89.2629,6.039823,0.0663999,0.44202974,27.3366,09/22.0/2023,2000,g 12.5,4.0
# From MPEC 2022-OB6
P/2022 C3 (PANSTARRS),e,12.8179,139.0463,93.9103,9.631092,0.0329755,0.54583896,14.7771,09/22.0/2023,2000,g 11.5,4.0
# From MPEC 2022-K19
P/2022 D1 (PANSTARRS),e,44.0776,47.9585,88.6699,7.402234,0.0489395,0.54733310,36.9475,09/22.0/2023,2000,g 12.5,4.0
# From MPEC 2022-K19
C/2022 D2 (Kowalski),e,22.6573,312.4397,177.7872,367.5250,0.0001399,0.99577148,0.0000,03/27.6093/2022,2000,g 17.0,4.0
# From MPEC 2023-M14
C/2022 E2 (ATLAS),h,09/14.0261/2024,137.1287,125.3696,41.6973,1.000809,3.666733,2000,9.0,4.0
# From MPEC 2023-R20
C/2022 E3 (ZTF),h,01/12.7733/2023,109.1685,302.5558,145.8134,1.000208,1.112266,2000,7.5,4.0
# From MPEC 2023-R20
C/2022 F1 (ATLAS),e,57.9755,350.6508,278.2872,5734,0.0000023,0.99895807,0.0000,08/05.2578/2022,2000,g  7.0,4.0
# From MPEC 2022-QD9
C/2022 F2 (NEOWISE),e,97.2940,58.6967,200.6235,23.77820,0.0085003,0.93332227,4.6554,09/22.0/2023,2000,g 14.5,4.0
# From MPEC 2023-J95
C/2022 H1 (PANSTARRS),e,49.8388,6.3447,246.1559,747.7031,0.0000482,0.98970618,0.0000,01/17.2589/2024,2000,g  6.0,4.0
# From MPEC 2022-VC5
C/2022 J1 (Maury-Attard),e,105.9450,280.7459,305.6695,47.62782,0.0029986,0.96631581,1.7390,09/22.0/2023,2000,g 14.9,4.0
# From MPEC 2023-M14
C/2022 J2 (Bok),e,149.1259,252.6145,133.1062,93.57314,0.0010889,0.98047684,0.0000,10/27.1177/2022,2000,g  9.0,4.0
# From MPEC 2023-R20
C/2022 JK5 (PANSTARRS),e,16.8309,59.6509,247.1727,43.25923,0.0034641,0.93788485,0.5062,09/22.0/2023,2000,g 11.0,4.0
# From MPEC 2022-ST7
C/2022 K1 (Leonard),h,12/17.4444/2021,41.9630,136.2865,142.6935,1.002377,3.988897,2000,11.0,4.0
# From MPEC 2023-CD7
C/2022 L1 (Catalina),e,123.4607,300.0314,59.8502,530.1239,0.0000807,0.99699822,0.0000,09/28.2415/2022,2000,g 15.8,4.0
# From MPEC 2023-R20
C/2022 L2 (ATLAS),h,03/12.2897/2024,129.3148,39.2412,199.9289,1.001497,2.692581,2000,6.5,4.0
# From MPEC 2023-HD1
P/2022 L3 (ATLAS),e,21.5431,29.8049,10.3393,6.501246,0.0594579,0.62774527,19.4445,09/22.0/2023,2000,g 12.7,4.0
# From MPEC 2022-N37
C/2022 L4 (PANSTARRS),e,141.2409,66.0590,125.3353,283.0378,0.0002070,0.98934852,0.0000,12/08.8512/2021,2000,g 14.0,4.0
# From MPEC 2023-FK0
C/2022 N1 (Attard-Maury),e,164.7382,301.8683,41.0687,37.04491,0.0043713,0.96001245,1.6477,09/22.0/2023,2000,g 16.9,4.0
# From MPEC 2023-R20
C/2022 N2 (PANSTARRS),h,07/31.5434/2025,5.5021,319.7397,75.3463,1.003833,3.826928,2000,6.0,4.0
# From MPEC 2023-R20
C/2022 O1 (ATLAS),h,02/15.8380/2022,71.0412,49.9170,268.9126,1.003800,7.431300,2000,6.0,4.0
# From MPEC 2023-HD1
P/2022 O2 (PANSTARRS),e,9.4245,330.4883,48.6292,6.306396,0.0622346,0.72142045,16.0530,09/22.0/2023,2000,g 16.2,4.0
# From MPEC 2023-N01
C/2022 P1 (NEOWISE),e,154.6067,205.0824,249.9448,18.46316,0.0124235,0.91359607,3.6960,09/22.0/2023,2000,g 13.0,4.0
# From MPEC 2023-G31
P/2022 P2 (ZTF),e,12.4405,291.2190,137.6352,4.486978,0.1036987,0.55813858,45.4321,09/22.0/2023,2000,g 12.5,4.0
# From MPEC 2023-HD1
C/2022 P3 (ZTF),e,59.5163,72.2262,0.1173,247.3275,0.0002534,0.98964200,0.0000,07/27.3959/2022,2000,g  9.0,4.0
# From MPEC 2023-R20
C/2022 Q2 (ATLAS),e,151.4854,352.9456,44.0710,32.78978,0.0052492,0.94985578,1.2251,09/22.0/2023,2000,g 13.0,4.0
# From MPEC 2023-R20
C/2022 QE78 (ATLAS),h,09/10.1718/2025,36.5480,119.9462,0.3471,1.003391,5.481758,2000,5.0,4.0
# From MPEC 2022-WD2
P/2022 R1 (PANSTARRS),e,7.3893,176.1118,222.1682,7.243902,0.0505528,0.50676720,359.1312,09/22.0/2023,2000,g 11.5,4.0
# From MPEC 2022-Y15
C/2022 R2 (ATLAS),e,52.9031,60.4083,78.3605,417.5734,0.0001155,0.99848581,0.0000,10/25.2329/2022,2000,g 17.0,4.0
# From MPEC 2023-R20
C/2022 R3 (Leonard),h,03/05.3430/2023,43.0828,8.2387,72.8704,1.000897,5.129060,2000,9.0,4.0
# From MPEC 2022-X67
P/2022 R4 (PANSTARRS),e,21.0215,176.6249,197.4459,3.836392,0.1311655,0.49011955,57.5337,09/22.0/2023,2000,g 16.5,4.0
# From MPEC 2022-WQ9
P/2022 R5 (PANSTARRS),e,15.2947,115.0505,240.5643,3.068745,0.1833424,0.19534567,88.4955,09/22.0/2023,2000,g 16.0,4.0
# From MPEC 2023-R20
C/2022 R6 (PANSTARRS),h,08/25.5533/2025,57.0218,150.7681,319.8577,1.004078,6.567445,2000,5.0,4.0
# From MPEC 2023-HD1
P/2022 S1 (PANSTARRS),e,34.5811,136.0917,262.7751,6.408027,0.0607600,0.50812858,24.2300,09/22.0/2023,2000,g 15.1,4.0
# From MPEC 2022-VC5
C/2022 S3 (PANSTARRS),h,01/21.6896/2023,78.5473,157.3211,267.9646,1.000391,0.838356,2000,17.0,4.0
# From MPEC 2023-R20
C/2022 S4 (Lemmon),e,101.2198,220.1744,268.4819,2615,0.0000074,0.99894355,0.0000,07/18.4642/2024,2000,g  8.0,4.0
# From MPEC 2023-HD1
C/2022 S5 (PANSTARRS),e,136.5331,214.8586,232.7900,20.42565,0.0106768,0.89331809,3.1871,09/22.0/2023,2000,g 16.3,4.0
# From MPEC 2023-M14
C/2022 T1 (Lemmon),e,22.5435,236.9183,324.3178,9177,0.0000011,0.99962462,0.0000,02/17.5228/2024,2000,g 12.0,4.0
# From MPEC 2023-R20
C/2022 U1 (Leonard),e,128.1469,72.5203,78.5530,12083,0.0000007,0.99965220,0.0000,03/25.6967/2024,2000,g  8.5,4.0
# From MPEC 2023-M14
C/2022 U2 (ATLAS),e,48.2467,304.4702,147.9162,96.21264,0.0010444,0.98619691,0.0000,01/14.2281/2023,2000,g 14.6,4.0
# From MPEC 2023-R20
C/2022 U3 (Bok),h,07/27.8654/2024,33.6311,272.7942,189.0166,1.003378,4.827508,2000,7.5,4.0
# From MPEC 2023-R20
C/2022 U4 (Bok),e,52.0349,132.9247,89.0079,3229,0.0000054,0.99910247,0.0000,08/03.6724/2023,2000,g 10.5,4.0
# From MPEC 2023-O39
C/2022 V2 (Lemmon),e,98.9058,332.8706,168.9493,36.84971,0.0044061,0.94400032,359.8197,09/22.0/2023,2000,g 12.0,4.0
# From MPEC 2023-CD7
P/2022 W1 (Rankin),e,13.4659,38.8151,17.8159,6.968172,0.0535828,0.51662003,19.8871,09/22.0/2023,2000,g 12.5,4.0
# From MPEC 2023-M14
C/2022 W2 (ATLAS),e,63.5288,320.4515,123.2642,339.4451,0.0001576,0.99080010,0.0000,03/08.7137/2023,2000,g 13.3,4.0
# From MPEC 2023-R20
C/2022 W3 (Leonard),e,103.5579,132.2692,116.5241,281.5869,0.0002086,0.99503622,0.0000,06/22.7783/2023,2000,g 13.0,4.0
# From MPEC 2023-M14
C/2022 Y1 (Hogan),e,18.8564,285.9091,174.7586,12.56519,0.0221284,0.76459960,6.6099,09/22.0/2023,2000,g  9.0,4.0
# From MPEC 2023-M14
C/2022 Y2 (Lemmon),e,165.9067,216.3503,105.5766,19.70865,0.0112647,0.87086173,2.0646,09/22.0/2023,2000,g 15.6,4.0
# From MPEC 2023-KD6
C/2023 A1 (Leonard),e,94.7405,318.3068,159.2484,227.3181,0.0002876,0.99192889,0.0000,03/18.7223/2023,2000,g 14.5,4.0
# From MPEC 2023-J95
C/2023 A2 (SWAN),e,94.7099,94.4728,142.5632,460.0722,0.0000999,0.99794110,0.0000,01/20.3759/2023,2000,g 13.5,4.0
# From MPEC 2023-R20
C/2023 A3 (Tsuchinshan-ATLAS),h,09/27.7221/2024,139.1190,21.5569,308.4841,1.000150,0.391447,2000,5.0,4.0
# From MPEC 2023-KD6
P/2023 B1 (PANSTARRS),e,14.5881,78.5739,81.3315,7.053157,0.0526173,0.12935782,7.7241,09/22.0/2023,2000,g  5.5,4.0
# From MPEC 2023-O39
C/2023 B2 (ATLAS),e,40.7717,218.1211,317.3923,599.4771,0.0000671,0.99709245,0.0000,03/10.4875/2023,2000,g 14.5,4.0
# From MPEC 2023-F81
P/2023 B3 (PANSTARRS),e,9.1618,154.0061,240.0094,4.545364,0.1017070,0.12323799,113.1428,09/22.0/2023,2000,g 10.5,4.0
# From MPEC 2023-OA6
C/2023 C2 (ATLAS),e,48.3163,301.0199,357.4558,3335,0.0000051,0.99928984,0.0000,11/16.8217/2024,2000,g  7.0,4.0
# From MPEC 2023-R20
C/2023 E1 (ATLAS),e,38.3137,164.5738,105.8988,19.33998,0.0115883,0.94691611,0.9606,09/22.0/2023,2000,g 15.5,4.0
# From MPEC 2023-N01
C/2023 F1 (PANSTARRS),e,131.7525,25.2479,216.6533,259.5667,0.0002357,0.99341930,0.0000,06/28.3491/2023,2000,g 16.0,4.0
# From MPEC 2023-N01
C/2023 F2 (SOHO),h,03/21.1661/2023,72.4514,71.5087,57.6810,1.011299,0.034214,2000,9.0,4.0
# From MPEC 2023-R20
C/2023 F3 (ATLAS),h,02/02.8682/2025,145.9556,109.4443,265.5472,1.004209,5.189857,2000,6.0,4.0
# From MPEC 2023-M14
C/2023 H1 (PANSTARRS),e,21.7773,292.6454,333.8439,1590,0.0000155,0.99720648,0.0000,11/28.4169/2024,2000,g 12.6,4.0
# From MPEC 2023-R20
C/2023 H2 (Lemmon),e,113.7547,217.0450,150.6470,244.4793,0.0002578,0.99634129,0.0000,10/29.1938/2023,2000,g 14.0,4.0
# From MPEC 2023-R20
C/2023 H3 (PANSTARRS),e,2.4895,55.1002,193.3393,13.63414,0.0195777,0.61620909,357.0609,09/22.0/2023,2000,g 10.0,4.0
# From MPEC 2023-R20
A/2023 H4,e,76.6189,230.8139,64.8962,140.7546,0.0005902,0.98494321,0.0000,08/08.8009/2023,2000,g 18.0,22.0
# From MPEC 2023-N01
C/2023 H5 (Lemmon),h,06/30.1417/2025,97.8804,159.4812,60.0776,1.000447,4.312998,2000,7.0,4.0
# From MPEC 2023-R20
C/2023 K1 (ATLAS),e,137.9986,223.7071,337.4749,698.6435,0.0000534,0.99708078,0.0000,09/07.7531/2023,2000,g 13.0,4.0
# From MPEC 2023-N01
P/2023 M1 (PANSTARRS),e,12.2883,216.8636,79.6851,6.850697,0.0549670,0.58748024,355.4166,09/22.0/2023,2000,g 13.5,4.0
# From MPEC 2023-R20
P/2023 M2 (PANSTARRS),e,19.7344,83.3137,242.5703,5.567916,0.0750179,0.36978068,4.5776,09/22.0/2023,2000,g 12.5,4.0
# From MPEC 2023-R20
P/2023 M4 (ATLAS),e,7.5927,296.2963,320.6869,5.452727,0.0774076,0.27933452,40.6345,09/22.0/2023,2000,g  7.5,4.0
# From MPEC 2023-R20
C/2023 P1 (Nishimura),e,132.4767,66.8344,116.2983,57.39048,0.0022670,0.99607680,0.0000,09/17.6417/2023,2000,g 10.0,4.0
# From MPEC 2023-RJ7
C/2023 R1 (PANSTARRS),e,149.3055,62.5272,144.5415,571.2106,0.0000722,0.99375508,0.0000,04/17.8099/2026,2000,g  6.0,4.0
# From  98, 1083
1P/Halley,e,162.1492,59.5850,112.4929,17.86654,0.0130510,0.96703476,178.9742,09/22.0/2023,2000,g  4.0,6.0
# From MPEC 2023-R20
2P/Encke,e,11.3367,334.0199,187.2866,2.218691,0.2982352,0.84693718,350.8954,09/22.0/2023,2000,g 11.5,6.0
# From MPEC 2023-FK0
4P/Faye,e,8.0093,192.9237,207.0715,3.827583,0.1316185,0.57684700,97.7873,09/22.0/2023,2000,g  8.0,6.0
# From MPEC 2022-WD2
6P/d'Arrest,e,19.5076,138.9443,178.0928,3.497250,0.1507003,0.61227923,110.6866,09/22.0/2023,2000,g  7.5,16.0
# From MPEC 2023-A50
7P/Pons-Winnecke,e,22.3871,93.3092,172.5149,3.408248,0.1566417,0.63875324,132.8556,09/22.0/2023,2000,g 10.0,6.0
# From MPEC 2022-HC2
8P/Tuttle,e,54.9543,270.1903,207.4638,5.703147,0.0723656,0.82027931,54.6503,09/22.0/2023,2000,g  8.0,8.0
# From MPEC 2023-R20
9P/Tempel,e,10.5470,68.2801,180.2153,3.161664,0.1753196,0.51069313,98.9384,09/22.0/2023,2000,g  5.5,10.0
# From MPEC 2023-HD1
